[
    {
        "Altitude(m)": 706389.0994217712,
        "Argument of Periapsis(deg)": 0.0022780242373254137,
        "Eccentricity": 0.0,
        "Inclination(deg)": 45.0,
        "Latitude(deg)": 41.027595207113066,
        "Longitude(deg)": -140.19494544521737,
        "Mean Anomaly(deg)": 67.76114332949618,
        "RAAN(deg)": 259.9978496117084,
        "Satellite Name": "Constellation 1 1148",
        "Satellite Number": 1148,
        "Semi-Major Axis(m)": 7083131.272910544,
        "Time(s)": 38
    },
    {
        "Altitude(m)": 706393.7817949493,
        "Argument of Periapsis(deg)": 0.002337972243570819,
        "Eccentricity": 0.0,
        "Inclination(deg)": 45.0,
        "Latitude(deg)": 41.049134271050626,
        "Longitude(deg)": -140.12392928037025,
        "Mean Anomaly(deg)": 67.82184446974607,
        "RAAN(deg)": 259.9977930225428,
        "Satellite Name": "Constellation 1 1148",
        "Satellite Number": 1148,
        "Semi-Major Axis(m)": 7083131.272910544,
        "Time(s)": 39
    },
    {
        "Altitude(m)": 706398.4549407499,
        "Argument of Periapsis(deg)": 0.0023979202498162246,
        "Eccentricity": 0.0,
        "Inclination(deg)": 45.0,
        "Latitude(deg)": 41.07062426889228,
        "Longitude(deg)": -140.05286419358612,
        "Mean Anomaly(deg)": 67.88254560999594,
        "RAAN(deg)": 259.9977364333772,
        "Satellite Name": "Constellation 1 1148",
        "Satellite Number": 1148,
        "Semi-Major Axis(m)": 7083131.272910544,
        "Time(s)": 40
    },
    {
        "Altitude(m)": 706403.118831105,
        "Argument of Periapsis(deg)": 0.00245786825606163,
        "Eccentricity": 0.0,
        "Inclination(deg)": 45.0,
        "Latitude(deg)": 41.092065132273575,
        "Longitude(deg)": -139.98175022762553,
        "Mean Anomaly(deg)": 67.94324675024583,
        "RAAN(deg)": 259.9976798442117,
        "Satellite Name": "Constellation 1 1148",
        "Satellite Number": 1148,
        "Semi-Major Axis(m)": 7083131.272910544,
        "Time(s)": 41
    },
    {
        "Altitude(m)": 706407.7734380094,
        "Argument of Periapsis(deg)": 0.002517816262307036,
        "Eccentricity": 0.0,
        "Inclination(deg)": 45.0,
        "Latitude(deg)": 41.11345679287066,
        "Longitude(deg)": -139.91058742576024,
        "Mean Anomaly(deg)": 68.00394789049577,
        "RAAN(deg)": 259.99762325504605,
        "Satellite Name": "Constellation 1 1148",
        "Satellite Number": 1148,
        "Semi-Major Axis(m)": 7083131.272910544,
        "Time(s)": 42
    },
    {
        "Altitude(m)": 706412.4187335215,
        "Argument of Periapsis(deg)": 0.0025777642685524413,
        "Eccentricity": 0.0,
        "Inclination(deg)": 45.0,
        "Latitude(deg)": 41.13479918240085,
        "Longitude(deg)": -139.8393758317746,
        "Mean Anomaly(deg)": 68.06464903074567,
        "RAAN(deg)": 259.9975666658805,
        "Satellite Name": "Constellation 1 1148",
        "Satellite Number": 1148,
        "Semi-Major Axis(m)": 7083131.272910544,
        "Time(s)": 43
    },
    {
        "Altitude(m)": 706417.0546897539,
        "Argument of Periapsis(deg)": 0.002637712274797847,
        "Eccentricity": 0.0,
        "Inclination(deg)": 45.0,
        "Latitude(deg)": 41.156092232623976,
        "Longitude(deg)": -139.7681156580625,
        "Mean Anomaly(deg)": 68.12535017099555,
        "RAAN(deg)": 259.99751007671495,
        "Satellite Name": "Constellation 1 1148",
        "Satellite Number": 1148,
        "Semi-Major Axis(m)": 7083131.272910544,
        "Time(s)": 44
    },
    {
        "Altitude(m)": 706421.6812788887,
        "Argument of Periapsis(deg)": 0.0026976602810432526,
        "Eccentricity": 0.0,
        "Inclination(deg)": 45.0,
        "Latitude(deg)": 41.17733587534184,
        "Longitude(deg)": -139.6968066132419,
        "Mean Anomaly(deg)": 68.18605131124544,
        "RAAN(deg)": 259.9974534875494,
        "Satellite Name": "Constellation 1 1148",
        "Satellite Number": 1148,
        "Semi-Major Axis(m)": 7083131.272910544,
        "Time(s)": 45
    },
    {
        "Altitude(m)": 706426.2984731584,
        "Argument of Periapsis(deg)": 0.0027576082872886585,
        "Eccentricity": 0.0,
        "Inclination(deg)": 45.0,
        "Latitude(deg)": 41.19853004240066,
        "Longitude(deg)": -139.6254489107365,
        "Mean Anomaly(deg)": 68.24675245149537,
        "RAAN(deg)": 259.99739689838384,
        "Satellite Name": "Constellation 1 1148",
        "Satellite Number": 1148,
        "Semi-Major Axis(m)": 7083131.272910544,
        "Time(s)": 46
    },
    {
        "Altitude(m)": 706430.9062448627,
        "Argument of Periapsis(deg)": 0.0028175562935340644,
        "Eccentricity": 0.0,
        "Inclination(deg)": 45.0,
        "Latitude(deg)": 41.21967466569071,
        "Longitude(deg)": -139.55404259638968,
        "Mean Anomaly(deg)": 68.30745359174526,
        "RAAN(deg)": 259.9973403092182,
        "Satellite Name": "Constellation 1 1148",
        "Satellite Number": 1148,
        "Semi-Major Axis(m)": 7083131.272910544,
        "Time(s)": 47
    },
    {
        "Altitude(m)": 706435.5045663674,
        "Argument of Periapsis(deg)": 0.00287750429977947,
        "Eccentricity": 0.0,
        "Inclination(deg)": 45.0,
        "Latitude(deg)": 41.24076967714744,
        "Longitude(deg)": -139.48258771656194,
        "Mean Anomaly(deg)": 68.36815473199515,
        "RAAN(deg)": 259.9972837200527,
        "Satellite Name": "Constellation 1 1148",
        "Satellite Number": 1148,
        "Semi-Major Axis(m)": 7083131.272910544,
        "Time(s)": 48
    },
    {
        "Altitude(m)": 706440.0934100895,
        "Argument of Periapsis(deg)": 0.002937452306024875,
        "Eccentricity": 0.0,
        "Inclination(deg)": 45.0,
        "Latitude(deg)": 41.261815008752194,
        "Longitude(deg)": -139.41108431813223,
        "Mean Anomaly(deg)": 68.42885587224508,
        "RAAN(deg)": 259.9972271308871,
        "Satellite Name": "Constellation 1 1148",
        "Satellite Number": 1148,
        "Semi-Major Axis(m)": 7083131.272910544,
        "Time(s)": 49
    },
    {
        "Altitude(m)": 706444.6727485127,
        "Argument of Periapsis(deg)": 0.0029974003122702807,
        "Eccentricity": 0.0,
        "Inclination(deg)": 45.0,
        "Latitude(deg)": 41.28281059253299,
        "Longitude(deg)": -139.33953244849897,
        "Mean Anomaly(deg)": 68.48955701249491,
        "RAAN(deg)": 259.9971705417216,
        "Satellite Name": "Constellation 1 1148",
        "Satellite Number": 1148,
        "Semi-Major Axis(m)": 7083131.272910544,
        "Time(s)": 50
    },
    {
        "Altitude(m)": 706449.2425541799,
        "Argument of Periapsis(deg)": 0.0030573483185156866,
        "Eccentricity": 0.0,
        "Inclination(deg)": 45.0,
        "Latitude(deg)": 41.30375636056532,
        "Longitude(deg)": -139.26793215558075,
        "Mean Anomaly(deg)": 68.5502581527448,
        "RAAN(deg)": 259.99711395255594,
        "Satellite Name": "Constellation 1 1148",
        "Satellite Number": 1148,
        "Semi-Major Axis(m)": 7083131.272910544,
        "Time(s)": 51
    },
    {
        "Altitude(m)": 706453.8027996989,
        "Argument of Periapsis(deg)": 0.003117296324761092,
        "Eccentricity": 0.0,
        "Inclination(deg)": 45.0,
        "Latitude(deg)": 41.32465224497318,
        "Longitude(deg)": -139.1962836559143,
        "Mean Anomaly(deg)": 68.61095929299474,
        "RAAN(deg)": 259.99705736339035,
        "Satellite Name": "Constellation 1 1148",
        "Satellite Number": 1148,
        "Semi-Major Axis(m)": 7083131.272910544,
        "Time(s)": 52
    },
    {
        "Altitude(m)": 706458.3534577413,
        "Argument of Periapsis(deg)": 0.0031772443310064975,
        "Eccentricity": 0.0,
        "Inclination(deg)": 45.0,
        "Latitude(deg)": 41.34549817792876,
        "Longitude(deg)": -139.1245866622682,
        "Mean Anomaly(deg)": 68.67166043324463,
        "RAAN(deg)": 259.99700077422483,
        "Satellite Name": "Constellation 1 1148",
        "Satellite Number": 1148,
        "Semi-Major Axis(m)": 7083131.272910544,
        "Time(s)": 53
    },
    {
        "Altitude(m)": 706462.8945010307,
        "Argument of Periapsis(deg)": 0.0032371923372519038,
        "Eccentricity": 0.0,
        "Inclination(deg)": 45.0,
        "Latitude(deg)": 41.366294091654886,
        "Longitude(deg)": -139.0528413922248,
        "Mean Anomaly(deg)": 68.73236157349456,
        "RAAN(deg)": 259.99694418505925,
        "Satellite Name": "Constellation 1 1148",
        "Satellite Number": 1148,
        "Semi-Major Axis(m)": 7083131.272910544,
        "Time(s)": 54
    },
    {
        "Altitude(m)": 706467.4259023641,
        "Argument of Periapsis(deg)": 0.0032971403434973088,
        "Eccentricity": 0.0,
        "Inclination(deg)": 45.0,
        "Latitude(deg)": 41.38703991842461,
        "Longitude(deg)": -138.98104789579384,
        "Mean Anomaly(deg)": 68.7930627137444,
        "RAAN(deg)": 259.9968875958937,
        "Satellite Name": "Constellation 1 1148",
        "Satellite Number": 1148,
        "Semi-Major Axis(m)": 7083131.272910544,
        "Time(s)": 55
    },
    {
        "Altitude(m)": 706471.9476345945,
        "Argument of Periapsis(deg)": 0.0033570883497427146,
        "Eccentricity": 0.0,
        "Inclination(deg)": 45.0,
        "Latitude(deg)": 41.40773559056247,
        "Longitude(deg)": -138.90920622351018,
        "Mean Anomaly(deg)": 68.85376385399434,
        "RAAN(deg)": 259.9968310067281,
        "Satellite Name": "Constellation 1 1148",
        "Satellite Number": 1148,
        "Semi-Major Axis(m)": 7083131.272910544,
        "Time(s)": 56
    }
]